[{"OBJECT_NAME":"WILDFIRE 7","OBJECT_ID":"2023-133E","EPOCH":"2026-03-09T19:34:31.241568","MEAN_MOTION":13.8508147,"ECCENTRICITY":0.0004374,"INCLINATION":80.9959,"RA_OF_ASC_NODE":103.3147,"ARG_OF_PERICENTER":309.4146,"MEAN_ANOMALY":50.6622,"EPHEMERIS_TYPE":0,"CLASSIFICATION_TYPE":"U","NORAD_CAT_ID":57761,"ELEMENT_SET_NO":999,"REV_AT_EPOCH":12723,"BSTAR":0.00010377661,"MEAN_MOTION_DOT":1.28e-6,"MEAN_MOTION_DDOT":0},{"OBJECT_NAME":"COSMOS 1375 DEB","OBJECT_ID":"1982-055BD","EPOCH":"2026-03-09T13:11:01.401792","MEAN_MOTION":13.82332147,"ECCENTRICITY":0.00256304,"INCLINATION":65.8295,"RA_OF_ASC_NODE":114.5861,"ARG_OF_PERICENTER":292.0453,"MEAN_ANOMALY":219.5622,"EPHEMERIS_TYPE":0,"CLASSIFICATION_TYPE":"U","NORAD_CAT_ID":18414,"ELEMENT_SET_NO":999,"REV_AT_EPOCH":3141,"BSTAR":0.0003925521,"MEAN_MOTION_DOT":3.43e-6,"MEAN_MOTION_DDOT":0}]
